MTI                     
1 26102U 00014A   20034.89634210  .00004719  00000-0  72588-4 0  9993
2 26102  97.5237 270.3043 0008897  13.4881 346.6628 15.54735319103600
CFESAT                  
1 30777U 07006F   20033.86314929  .00002103  00000-0  59913-4 0  9994
2 30777  35.4253 100.4488 0004632  34.4941 325.6085 15.36054172715582
SPIRALE A               
1 33751U 09008C   20034.69475028  .00000054  00000-0  17689-3 0  9999
2 33751   2.0647 337.9697 5384931  83.5932 332.3386  4.58728398155099
SPIRALE B               
1 33752U 09008D   20034.66409303  .00001064  00000-0  26299-3 0  9999
2 33752   1.8827 220.5881 6915262 310.0192   7.2063  2.75198463101084
SAPPHIRE                
1 39088U 13009C   20035.04708623 -.00000015  00000-0  99700-5 0  9998
2 39088  98.4785 239.0731 0010782 329.8216  30.2347 14.34201785363236
